{"fetched_at":"2026-07-20T18:29:26.415Z","source":"https://celestrak.org/NORAD/elements/gp.php?NAME=HULIANWANG&FORMAT=JSON","constellation":"guowang","records":[{"OBJECT_NAME":"HULIANWANG DIGUI-108","OBJECT_ID":"2025-285D","EPOCH":"2026-07-20T05:30:59.100480","CLASSIFICATION_TYPE":"U","MEAN_MOTION":13.2932611,"ECCENTRICITY":0.00009362,"INCLINATION":50.0062,"RA_OF_ASC_NODE":27.4898,"ARG_OF_PERICENTER":56.271,"MEAN_ANOMALY":303.8251,"EPHEMERIS_TYPE":0,"NORAD_CAT_ID":66918,"ELEMENT_SET_NO":999,"REV_AT_EPOCH":3045,"BSTAR":0.000029041301,"MEAN_MOTION_DOT":-0.00000111,"MEAN_MOTION_DDOT":0},{"OBJECT_NAME":"HULIANWANG DIGUI-109","OBJECT_ID":"2025-285E","EPOCH":"2026-07-19T18:29:17.102976","CLASSIFICATION_TYPE":"U","MEAN_MOTION":13.29316717,"ECCENTRICITY":0.00008943,"INCLINATION":50.0086,"RA_OF_ASC_NODE":29.1092,"ARG_OF_PERICENTER":64.1296,"MEAN_ANOMALY":295.9668,"EPHEMERIS_TYPE":0,"NORAD_CAT_ID":66919,"ELEMENT_SET_NO":999,"REV_AT_EPOCH":3040,"BSTAR":-0.00000392276,"MEAN_MOTION_DOT":-0.00000126,"MEAN_MOTION_DDOT":0},{"OBJECT_NAME":"HULIANWANG DIGUI-110","OBJECT_ID":"2025-285F","EPOCH":"2026-07-19T18:17:26.126016","CLASSIFICATION_TYPE":"U","MEAN_MOTION":13.29326532,"ECCENTRICITY":0.00008735,"INCLINATION":50.0119,"RA_OF_ASC_NODE":29.1243,"ARG_OF_PERICENTER":55.7086,"MEAN_ANOMALY":304.3869,"EPHEMERIS_TYPE":0,"NORAD_CAT_ID":66920,"ELEMENT_SET_NO":999,"REV_AT_EPOCH":3039,"BSTAR":0.000009159858,"MEAN_MOTION_DOT":-0.0000012,"MEAN_MOTION_DDOT":0},{"OBJECT_NAME":"HULIANWANG DIGUI-111","OBJECT_ID":"2025-285G","EPOCH":"2026-07-19T23:30:14.159520","CLASSIFICATION_TYPE":"U","MEAN_MOTION":13.29325996,"ECCENTRICITY":0.00009025,"INCLINATION":50.0132,"RA_OF_ASC_NODE":28.3025,"ARG_OF_PERICENTER":55.6232,"MEAN_ANOMALY":304.4726,"EPHEMERIS_TYPE":0,"NORAD_CAT_ID":66921,"ELEMENT_SET_NO":999,"REV_AT_EPOCH":3042,"BSTAR":0.000007429421,"MEAN_MOTION_DOT":-0.00000121,"MEAN_MOTION_DDOT":0},{"OBJECT_NAME":"HULIANWANG DIGUI-112","OBJECT_ID":"2025-285H","EPOCH":"2026-07-19T21:29:53.253600","CLASSIFICATION_TYPE":"U","MEAN_MOTION":13.29325922,"ECCENTRICITY":0.00009633,"INCLINATION":50.0098,"RA_OF_ASC_NODE":28.4634,"ARG_OF_PERICENTER":51.6253,"MEAN_ANOMALY":308.4706,"EPHEMERIS_TYPE":0,"NORAD_CAT_ID":66922,"ELEMENT_SET_NO":999,"REV_AT_EPOCH":3041,"BSTAR":0.000024776111,"MEAN_MOTION_DOT":-0.00000113,"MEAN_MOTION_DDOT":0},{"OBJECT_NAME":"HULIANWANG DIGUI-113","OBJECT_ID":"2025-285J","EPOCH":"2026-07-20T06:19:18.588576","CLASSIFICATION_TYPE":"U","MEAN_MOTION":13.29324419,"ECCENTRICITY":0.00009541,"INCLINATION":50.0108,"RA_OF_ASC_NODE":27.0895,"ARG_OF_PERICENTER":52.7396,"MEAN_ANOMALY":307.3563,"EPHEMERIS_TYPE":0,"NORAD_CAT_ID":66923,"ELEMENT_SET_NO":999,"REV_AT_EPOCH":3046,"BSTAR":0.000044072938,"MEAN_MOTION_DOT":-0.00000104,"MEAN_MOTION_DDOT":0},{"OBJECT_NAME":"HULIANWANG DIGUI-114","OBJECT_ID":"2025-287A","EPOCH":"2026-07-20T03:45:10.276416","CLASSIFICATION_TYPE":"U","MEAN_MOTION":13.24413678,"ECCENTRICITY":0.00022757,"INCLINATION":86.4924,"RA_OF_ASC_NODE":271.2268,"ARG_OF_PERICENTER":96.1733,"MEAN_ANOMALY":263.9661,"EPHEMERIS_TYPE":0,"NORAD_CAT_ID":66953,"ELEMENT_SET_NO":999,"REV_AT_EPOCH":2970,"BSTAR":0.000068703249,"MEAN_MOTION_DOT":4.4e-7,"MEAN_MOTION_DDOT":0},{"OBJECT_NAME":"HULIANWANG DIGUI-115","OBJECT_ID":"2025-287B","EPOCH":"2026-07-20T03:33:55.226304","CLASSIFICATION_TYPE":"U","MEAN_MOTION":13.24401132,"ECCENTRICITY":0.00025379,"INCLINATION":86.494,"RA_OF_ASC_NODE":271.2594,"ARG_OF_PERICENTER":93.1865,"MEAN_ANOMALY":266.9559,"EPHEMERIS_TYPE":0,"NORAD_CAT_ID":66954,"ELEMENT_SET_NO":999,"REV_AT_EPOCH":2970,"BSTAR":0.000083620706,"MEAN_MOTION_DOT":5.1e-7,"MEAN_MOTION_DDOT":0},{"OBJECT_NAME":"HULIANWANG DIGUI-116","OBJECT_ID":"2025-287C","EPOCH":"2026-07-20T03:23:25.397952","CLASSIFICATION_TYPE":"U","MEAN_MOTION":13.24413324,"ECCENTRICITY":0.00023409,"INCLINATION":86.488,"RA_OF_ASC_NODE":271.1195,"ARG_OF_PERICENTER":94.1305,"MEAN_ANOMALY":266.0097,"EPHEMERIS_TYPE":0,"NORAD_CAT_ID":66955,"ELEMENT_SET_NO":999,"REV_AT_EPOCH":2970,"BSTAR":0.000090585989,"MEAN_MOTION_DOT":5.4e-7,"MEAN_MOTION_DDOT":0},{"OBJECT_NAME":"HULIANWANG DIGUI-117","OBJECT_ID":"2025-287D","EPOCH":"2026-07-20T03:12:35.555040","CLASSIFICATION_TYPE":"U","MEAN_MOTION":13.24412984,"ECCENTRICITY":0.00007895,"INCLINATION":86.4941,"RA_OF_ASC_NODE":271.2537,"ARG_OF_PERICENTER":73.0424,"MEAN_ANOMALY":287.0797,"EPHEMERIS_TYPE":0,"NORAD_CAT_ID":66956,"ELEMENT_SET_NO":999,"REV_AT_EPOCH":2970,"BSTAR":0.000074998874,"MEAN_MOTION_DOT":4.7e-7,"MEAN_MOTION_DDOT":0},{"OBJECT_NAME":"HULIANWANG DIGUI-118","OBJECT_ID":"2025-287E","EPOCH":"2026-07-20T04:50:29.450400","CLASSIFICATION_TYPE":"U","MEAN_MOTION":13.24412426,"ECCENTRICITY":0.00023148,"INCLINATION":86.4916,"RA_OF_ASC_NODE":271.1703,"ARG_OF_PERICENTER":95.9321,"MEAN_ANOMALY":264.2076,"EPHEMERIS_TYPE":0,"NORAD_CAT_ID":66957,"ELEMENT_SET_NO":999,"REV_AT_EPOCH":2971,"BSTAR":0.000039833636,"MEAN_MOTION_DOT":3.2e-7,"MEAN_MOTION_DDOT":0},{"OBJECT_NAME":"HULIANWANG DIGUI-119","OBJECT_ID":"2025-295A","EPOCH":"2026-07-20T05:39:04.539744","CLASSIFICATION_TYPE":"U","MEAN_MOTION":13.29324822,"ECCENTRICITY":0.00011172,"INCLINATION":50.0031,"RA_OF_ASC_NODE":267.2549,"ARG_OF_PERICENTER":210.4346,"MEAN_ANOMALY":149.6461,"EPHEMERIS_TYPE":0,"NORAD_CAT_ID":67059,"ELEMENT_SET_NO":999,"REV_AT_EPOCH":2989,"BSTAR":0.000065990732,"MEAN_MOTION_DOT":-9.3e-7,"MEAN_MOTION_DDOT":0},{"OBJECT_NAME":"HULIANWANG DIGUI-120","OBJECT_ID":"2025-295B","EPOCH":"2026-07-20T05:15:01.985472","CLASSIFICATION_TYPE":"U","MEAN_MOTION":13.2932479,"ECCENTRICITY":0.00011681,"INCLINATION":50.0037,"RA_OF_ASC_NODE":267.1782,"ARG_OF_PERICENTER":211.217,"MEAN_ANOMALY":148.8633,"EPHEMERIS_TYPE":0,"NORAD_CAT_ID":67060,"ELEMENT_SET_NO":999,"REV_AT_EPOCH":2989,"BSTAR":0.000059341961,"MEAN_MOTION_DOT":-9.6e-7,"MEAN_MOTION_DDOT":0},{"OBJECT_NAME":"HULIANWANG DIGUI-121","OBJECT_ID":"2025-295C","EPOCH":"2026-07-20T05:27:02.766240","CLASSIFICATION_TYPE":"U","MEAN_MOTION":13.29326107,"ECCENTRICITY":0.00011553,"INCLINATION":49.9997,"RA_OF_ASC_NODE":267.1463,"ARG_OF_PERICENTER":209.1597,"MEAN_ANOMALY":150.921,"EPHEMERIS_TYPE":0,"NORAD_CAT_ID":67061,"ELEMENT_SET_NO":999,"REV_AT_EPOCH":2989,"BSTAR":0.000069548128,"MEAN_MOTION_DOT":-9.2e-7,"MEAN_MOTION_DDOT":0},{"OBJECT_NAME":"HULIANWANG DIGUI-122","OBJECT_ID":"2025-295D","EPOCH":"2026-07-20T03:14:37.949280","CLASSIFICATION_TYPE":"U","MEAN_MOTION":13.29324774,"ECCENTRICITY":0.00011525,"INCLINATION":50.0032,"RA_OF_ASC_NODE":267.3942,"ARG_OF_PERICENTER":208.7046,"MEAN_ANOMALY":151.3763,"EPHEMERIS_TYPE":0,"NORAD_CAT_ID":67062,"ELEMENT_SET_NO":999,"REV_AT_EPOCH":2988,"BSTAR":0.000063468402,"MEAN_MOTION_DOT":-9.5e-7,"MEAN_MOTION_DDOT":0},{"OBJECT_NAME":"HULIANWANG DIGUI-123","OBJECT_ID":"2025-295E","EPOCH":"2026-07-20T04:50:56.777856","CLASSIFICATION_TYPE":"U","MEAN_MOTION":13.29324402,"ECCENTRICITY":0.00010699,"INCLINATION":50.0032,"RA_OF_ASC_NODE":267.0849,"ARG_OF_PERICENTER":210.192,"MEAN_ANOMALY":149.8891,"EPHEMERIS_TYPE":0,"NORAD_CAT_ID":67063,"ELEMENT_SET_NO":999,"REV_AT_EPOCH":2989,"BSTAR":0.000058717439,"MEAN_MOTION_DOT":-9.7e-7,"MEAN_MOTION_DDOT":0}]}
