HULIANWANG DIGUI-108    
1 66918U 25285D   26201.22985070 -.00000111  00000+0  29041-4 0  9999
2 66918  50.0062  27.4898 0000936  56.2710 303.8251 13.29326110 30454
HULIANWANG DIGUI-109    
1 66919U 25285E   26200.77033684 -.00000126  00000+0 -39228-5 0  9990
2 66919  50.0086  29.1092 0000894  64.1296 295.9668 13.29316717 30406
HULIANWANG DIGUI-110    
1 66920U 25285F   26200.76210794 -.00000120  00000+0  91599-5 0  9992
2 66920  50.0119  29.1243 0000873  55.7086 304.3869 13.29326532 30395
HULIANWANG DIGUI-111    
1 66921U 25285G   26200.97933055 -.00000121  00000+0  74294-5 0  9992
2 66921  50.0132  28.3025 0000902  55.6232 304.4726 13.29325996 30425
HULIANWANG DIGUI-112    
1 66922U 25285H   26200.89575525 -.00000113  00000+0  24776-4 0  9998
2 66922  50.0098  28.4634 0000963  51.6253 308.4706 13.29325922 30410
HULIANWANG DIGUI-113    
1 66923U 25285J   26201.26340959 -.00000104  00000+0  44073-4 0  9994
2 66923  50.0108  27.0895 0000954  52.7396 307.3563 13.29324419 30461
HULIANWANG DIGUI-114    
1 66953U 25287A   26201.15636894  .00000044  00000+0  68703-4 0  9991
2 66953  86.4924 271.2268 0002275  96.1733 263.9661 13.24413678 29707
HULIANWANG DIGUI-115    
1 66954U 25287B   26201.14855586  .00000051  00000+0  83621-4 0  9996
2 66954  86.4940 271.2594 0002537  93.1865 266.9559 13.24401132 29703
HULIANWANG DIGUI-116    
1 66955U 25287C   26201.14126618  .00000054  00000+0  90586-4 0  9995
2 66955  86.4880 271.1195 0002340  94.1305 266.0097 13.24413324 29709
HULIANWANG DIGUI-117    
1 66956U 25287D   26201.13374485  .00000047  00000+0  74999-4 0  9994
2 66956  86.4941 271.2537 0000789  73.0424 287.0797 13.24412984 29703
HULIANWANG DIGUI-118    
1 66957U 25287E   26201.20172975  .00000032  00000+0  39834-4 0  9996
2 66957  86.4916 271.1703 0002314  95.9321 264.2076 13.24412426 29714
HULIANWANG DIGUI-119    
1 67059U 25295A   26201.23546921 -.00000093  00000+0  65991-4 0  9999
2 67059  50.0031 267.2549 0001117 210.4346 149.6461 13.29324822 29898
HULIANWANG DIGUI-120    
1 67060U 25295B   26201.21877298 -.00000096  00000+0  59342-4 0  9999
2 67060  50.0037 267.1782 0001168 211.2170 148.8633 13.29324790 29890
HULIANWANG DIGUI-121    
1 67061U 25295C   26201.22711535 -.00000092  00000+0  69548-4 0  9997
2 67061  49.9997 267.1463 0001155 209.1597 150.9210 13.29326107 29893
HULIANWANG DIGUI-122    
1 67062U 25295D   26201.13516145 -.00000095  00000+0  63468-4 0  9996
2 67062  50.0032 267.3942 0001152 208.7046 151.3763 13.29324774 29887
HULIANWANG DIGUI-123    
1 67063U 25295E   26201.20204604 -.00000097  00000+0  58717-4 0  9992
2 67063  50.0032 267.0849 0001069 210.1920 149.8891 13.29324402 29899
